STARLINK-4771           
1 53833U 22114R   22267.91667824 -.01162444  00000+0 -54935-2 0  9995
2 53833  53.2176 229.9139 0017312  53.5052 338.4744 15.84752428  1300
STARLINK-4737           
1 53834U 22114S   22267.91667824 -.01162089  00000+0 -54555-2 0  9999
2 53834  53.2176 229.9112 0018507  54.2313 339.3164 15.84839811  1305
STARLINK-4783           
1 53835U 22114T   22268.25001157 -.01162687  00000+0 -57457-2 0  9997
2 53835  53.2176 228.2378 0014981  51.4133  83.5386 15.83920870  1559
STARLINK-4778           
1 53836U 22114U   22267.91667824 -.01162163  00000+0 -54450-2 0  9998
2 53836  53.2176 229.9101 0018655  55.2642 338.9151 15.84874539  1302
STARLINK-4776           
1 53837U 22114V   22267.91667824 -.01162267  00000+0 -54727-2 0  9991
2 53837  53.2176 229.9115 0017383  54.5336 338.6862 15.84823607  1303
STARLINK-4773           
1 53838U 22114W   22267.91667824 -.01161907  00000+0 -54323-2 0  9994
2 53838  53.2176 229.9096 0019271  54.6701 339.8234 15.84891621  1304
STARLINK-4784           
1 53839U 22114X   22267.91667824 -.01162037  00000+0 -54487-2 0  9991
2 53839  53.2176 229.9103 0018697  54.4319 339.4417 15.84856469  1308
STARLINK-4766           
1 53840U 22114Y   22267.91667824 -.01161198  00000+0 -54372-2 0  9993
2 53840  53.2176 229.9077 0017151  53.6171 341.8186 15.84943980  1306
STARLINK-4750           
1 53841U 22114Z   22267.91667824 -.01161724  00000+0 -54300-2 0  9990
2 53841  53.2176 229.9085 0018931  54.4861 340.2941 15.84910710  1305
STARLINK-4754           
1 53842U 22114AA  22267.91667824 -.01161300  00000+0 -54079-2 0  9994
2 53842  53.2176 229.9065 0019086  54.6085 341.4423 15.84978884  1300
STARLINK-4769           
1 53843U 22114AB  22267.91667824 -.01161751  00000+0 -54243-2 0  9998
2 53843  53.2176 229.9079 0019080  55.0150 340.1050 15.84926474  1308
STARLINK-4745           
1 53844U 22114AC  22267.91667824 -.01161222  00000+0 -53957-2 0  9993
2 53844  53.2176 229.9052 0019322  55.0747 341.6015 15.85013454  1304
STARLINK-4753           
1 53845U 22114AD  22267.91667824 -.01161492  00000+0 -54142-2 0  9990
2 53845  53.2176 229.9067 0019040  54.9410 340.8087 15.84960920  1301
STARLINK-4746           
1 53846U 22114AE  22267.91667824 -.01160955  00000+0 -53895-2 0  9998
2 53846  53.2176 229.9039 0018943  54.9840 342.3295 15.85047279  1301
STARLINK-4777           
1 53847U 22114AF  22267.91667824 -.01161168  00000+0 -54060-2 0  9991
2 53847  53.2176 229.9055 0018793  54.6226 341.7534 15.84995495  1308
STARLINK-4780           
1 53848U 22114AG  22267.91667824 -.01160344  00000+0 -53877-2 0  9992
2 53848  53.2176 229.9028 0017939  53.6416 344.2840 15.85082524  1309
STARLINK-4770           
1 53849U 22114AH  22267.91667824 -.01161322  00000+0 -53952-2 0  9994
2 53849  53.2176 229.9043 0018993  55.9168 341.0710 15.85031003  1304
STARLINK-4767           
1 53850U 22114AJ  22267.91667824 -.01160364  00000+0 -53576-2 0  9993
2 53850  53.2176 229.9010 0019463  54.7367 344.1121 15.85134534  1304
STARLINK-4755           
1 53851U 22114AK  22267.91667824 -.01160856  00000+0 -53869-2 0  9995
2 53851  53.2176 229.9032 0018712  55.0687 342.5565 15.85064611  1306
STARLINK-4797           
1 53852U 22114AL  22267.91667824 -.01160211  00000+0 -53487-2 0  9997
2 53852  53.2176 229.8998 0019368  54.9301 344.5353 15.85169238  1304
STARLINK-4794           
1 53853U 22114AM  22267.91667824 -.01160415  00000+0 -53804-2 0  9997
2 53853  53.2176 229.9019 0018200  54.2798 343.9353 15.85101111  1306
STARLINK-4800           
1 53854U 22114AN  22267.91667824 -.01159753  00000+0 -53520-2 0  9996
2 53854  53.2176 229.8986 0017981  54.1546 345.9240 15.85204267  1307
STARLINK-4703           
1 53855U 22114AP  22267.91667824 -.01160125  00000+0 -53798-2 0  9999
2 53855  53.2176 229.9013 0017702  53.6536 344.8891 15.85117367  1308
STARLINK-4795           
1 53856U 22114AQ  22267.91667824 -.01159422  00000+0 -53139-2 0  9997
2 53856  53.2176 229.8954 0019284  54.6843 346.9416 15.85289566  1308
STARLINK-4809           
1 53857U 22114AR  22267.91667824 -.01160046  00000+0 -53676-2 0  9998
2 53857  53.2176 229.9001 0017955  54.1106 345.0501 15.85151980  1306
STARLINK-4798           
1 53858U 22114AS  22267.91667824 -.01159657  00000+0 -53425-2 0  9997
2 53858  53.2176 229.8980 0018446  54.1821 346.2307 15.85219809  1304
STARLINK-4790           
1 53859U 22114AT  22267.91667824 -.01159761  00000+0 -53588-2 0  9994
2 53859  53.2176 229.8989 0017776  53.8312 345.9436 15.85186740  1306
STARLINK-4799           
1 53860U 22114AU  22268.25001157 -.01167071  00000+0 -56263-2 0  9991
2 53860  53.2176 228.2202 0015809  52.9922  91.2314 15.84411868  1555
STARLINK-4781           
1 53861U 22114AV  22267.91667824 -.01159519  00000+0 -53397-2 0  9996
2 53861  53.2176 229.8971 0018208  54.0409 346.6767 15.85237289  1301
STARLINK-4792           
1 53862U 22114AW  22267.91667824 -.01159451  00000+0 -53076-2 0  9996
2 53862  53.2176 229.8951 0019415  55.1193 346.7819 15.85308697  1304
STARLINK-4788           
1 53863U 22114AX  22267.91667824 -.01160087  00000+0 -53039-2 0  9993
2 53863  53.2176 229.8965 0021254  56.1087 344.8945 15.85255309  1307
STARLINK-4779           
1 53864U 22114AY  22267.91667824 -.01159367  00000+0 -52998-2 0  9996
2 53864  53.2176 229.8939 0019312  55.5990 346.9486 15.85341164  1305
STARLINK-4785           
1 53865U 22114AZ  22267.91667824 -.01159214  00000+0 -53058-2 0  9996
2 53865  53.2176 229.8941 0019083  54.6462 347.5809 15.85324749  1304
STARLINK-4762           
1 53866U 22114BA  22267.91667824 -.01159098  00000+0 -52834-2 0  9998
2 53866  53.2176 229.8922 0019434  55.6030 347.8477 15.85393493  1302
STARLINK-4793           
1 53867U 22114BB  22267.91667824 -.01159095  00000+0 -52916-2 0  9997
2 53867  53.2176 229.8929 0019498  54.8745 347.9600 15.85359326  1300
STARLINK-4789           
1 53868U 22114BC  22267.91667824 -.01159473  00000+0 -52896-2 0  9995
2 53868  53.2176 229.8917 0018608  57.5203 346.2314 15.85411418  1304
STARLINK-4810           
1 53869U 22114BD  22267.91667824 -.01159074  00000+0 -52851-2 0  9994
2 53869  53.2176 229.8923 0019648  55.0784 348.0455 15.85377459  1306
STARLINK-4732           
1 53870U 22114BE  22267.91667824 -.01158775  00000+0 -52813-2 0  9991
2 53870  53.2176 229.8911 0018642  55.1678 348.8922 15.85428003  1300
STARLINK-4740           
1 53871U 22114BF  22267.91667824 -.01158647  00000+0 -52799-2 0  9993
2 53871  53.2176 229.8898 0018322  55.1116 349.2767 15.85443832  1306
FALCON 9 DEB            
1 53872U 22114BG  22267.38774426  .00642245  19939-3  84514-3 0  9997
2 53872  53.2176 232.3608 0070440  65.1993 295.6345 16.01248159  1960
FALCON 9 DEB            
1 53873U 22114BH  22267.38633902  .00687743  23104-3  90600-3 0  9995
2 53873  53.2163 232.3485 0066258  66.4847 294.3129 16.01768533  1963
FALCON 9 DEB            
1 53874U 22114BJ  22267.38278311  .00690129  23682-3  85501-3 0  9992
2 53874  53.2153 232.3182 0064295  62.3110 298.4427 16.02935298  1965
FALCON 9 DEB            
1 53875U 22114BK  22267.38211092  .00680465  23051-3  83973-3 0  9999
2 53875  53.2156 232.3138 0063685  64.0386 296.7190 16.03068841  1966
CHUANGXIN 16B (CX-16B)  
1 53876U 22102B   22267.87765037  .00003156  00000+0  29290-3 0  9997
2 53876  28.9979 157.9945 0004837 227.8036 132.2150 14.91774303   761
2022-115A               
1 53877U 22115A   22268.19013831 -.00000185  00000+0 -46574-4 0  9992
2 53877  98.4968 266.8313 0014492 249.5291 110.4353 14.37978861   615
CZ-2D R/B               
1 53878U 22115B   22267.96839957  .00001020  00000+0  16804-3 0  9991
2 53878  98.5448 266.8754 0124628  30.6919 330.1496 14.67924885   594
SOYUZ-MS 22             
1 53879U 22116A   22267.56244144  .00008468  00000+0  15481-3 0  9990
2 53879  51.6423 204.2461 0002319 289.4363 229.3932 15.50253176360592
2022-118A               
1 53884U 22118A   22268.21802089 -.00000073  00000+0  00000+0 0  9991
2 53884  97.5180 274.7241 0013372 260.7089 226.5196 15.22797228    45
2022-118B               
1 53885U 22118B   22268.21847142 -.00000073  00000+0  00000+0 0  9991
2 53885  97.5176 274.7281 0010356 268.5158 221.7399 15.23440870    37
2022-118C               
1 53942U 22118C   22268.21546486 -.00000633  19964-5  00000+0 0  9999
2 53942  97.5218 274.6499 0277167   4.4381 114.5380 15.25844140    37
